FENGYUN 3B              
1 37214U 10059A   25334.23070932  .00000123  00000+0  86902-4 0  9999
2 37214  98.9926  14.1197 0022579  32.9172  45.8736 14.14784302779295
SUOMI NPP               
1 37849U 11061A   25334.14706250  .00000129  00000+0  82349-4 0  9993
2 37849  98.7754 271.6031 0001762 143.1996 216.9302 14.19508484730201
METEOSAT-10 (MSG-3)     
1 38552U 12035B   25334.07743934  .00000015  00000+0  00000+0 0  9992
2 38552   4.1965  61.7407 0000544 218.0524 177.3977  1.00272045 48868
METOP-B                 
1 38771U 12049A   25334.12230303  .00000160  00000+0  93151-4 0  9992
2 38771  98.6818  24.2939 0002321 173.4184 186.7024 14.21400948684989
INSAT-3D                
1 39216U 13038B   25333.96035198 -.00000317  00000+0  00000+0 0  9993
2 39216   1.4086  85.1461 0001612 147.3666 311.7916  1.00275859 45082
FENGYUN 3C              
1 39260U 13052A   25334.23490687  .00000142  00000+0  93467-4 0  9996
2 39260  98.4750 312.5257 0013709 233.8079 126.1828 14.15690197630417
METEOR-M 2              
1 40069U 14037A   25334.21819557  .00000190  00000+0  10636-3 0  9997
2 40069  98.4889 312.2836 0004624 252.3254 107.7419 14.21378854591053
HIMAWARI-8              
1 40267U 14060A   25333.89127652 -.00000253  00000+0  00000+0 0  9995
2 40267   0.0367 159.3589 0001024 113.4675 257.7391  1.00273539 40762
