{
  "type": "FeatureCollection",
  "features": [
    {
      "type": "Feature",
      "properties": {
        "OBJECT_NAME": "FENGYUN 3B",
        "OBJECT_ID": "2010-059A",
        "EPOCH": "2025-11-30T05:32:13.285248",
        "MEAN_MOTION": 14.14784302,
        "ECCENTRICITY": 0.0022579,
        "INCLINATION": 98.9926,
        "RA_OF_ASC_NODE": 14.1197,
        "ARG_OF_PERICENTER": 32.9172,
        "MEAN_ANOMALY": 45.8736,
        "EPHEMERIS_TYPE": 0,
        "CLASSIFICATION_TYPE": "U",
        "NORAD_CAT_ID": 37214,
        "ELEMENT_SET_NO": 999,
        "REV_AT_EPOCH": 77929,
        "BSTAR": 8.6902e-05,
        "MEAN_MOTION_DOT": 1.23e-06,
        "MEAN_MOTION_DDOT": 0,
        "norad_id": 37214,
        "name": "FENGYUN 3B",
        "group": "weather",
        "longitude_deg": NaN,
        "latitude_deg": NaN,
        "alt_km": NaN,
        "orbit_class": "HEO",
        "timestamp": "2025-11-30T09:33:02.502750+00:00"
      },
      "geometry": {
        "type": "Point",
        "coordinates": [
          NaN,
          NaN
        ]
      }
    },
    {
      "type": "Feature",
      "properties": {
        "OBJECT_NAME": "SUOMI NPP",
        "OBJECT_ID": "2011-061A",
        "EPOCH": "2025-11-30T03:31:46.200000",
        "MEAN_MOTION": 14.19508484,
        "ECCENTRICITY": 0.0001762,
        "INCLINATION": 98.7754,
        "RA_OF_ASC_NODE": 271.6031,
        "ARG_OF_PERICENTER": 143.1996,
        "MEAN_ANOMALY": 216.9302,
        "EPHEMERIS_TYPE": 0,
        "CLASSIFICATION_TYPE": "U",
        "NORAD_CAT_ID": 37849,
        "ELEMENT_SET_NO": 999,
        "REV_AT_EPOCH": 73020,
        "BSTAR": 8.2349e-05,
        "MEAN_MOTION_DOT": 1.29e-06,
        "MEAN_MOTION_DDOT": 0,
        "norad_id": 37849,
        "name": "SUOMI NPP",
        "group": "weather",
        "longitude_deg": NaN,
        "latitude_deg": NaN,
        "alt_km": NaN,
        "orbit_class": "HEO",
        "timestamp": "2025-11-30T09:33:02.503120+00:00"
      },
      "geometry": {
        "type": "Point",
        "coordinates": [
          NaN,
          NaN
        ]
      }
    },
    {
      "type": "Feature",
      "properties": {
        "OBJECT_NAME": "METEOSAT-10 (MSG-3)",
        "OBJECT_ID": "2012-035B",
        "EPOCH": "2025-11-30T01:51:30.758976",
        "MEAN_MOTION": 1.00272045,
        "ECCENTRICITY": 5.44e-05,
        "INCLINATION": 4.1965,
        "RA_OF_ASC_NODE": 61.7407,
        "ARG_OF_PERICENTER": 218.0524,
        "MEAN_ANOMALY": 177.3977,
        "EPHEMERIS_TYPE": 0,
        "CLASSIFICATION_TYPE": "U",
        "NORAD_CAT_ID": 38552,
        "ELEMENT_SET_NO": 999,
        "REV_AT_EPOCH": 4886,
        "BSTAR": 0,
        "MEAN_MOTION_DOT": 1.5e-07,
        "MEAN_MOTION_DDOT": 0,
        "norad_id": 38552,
        "name": "METEOSAT-10 (MSG-3)",
        "group": "weather",
        "longitude_deg": NaN,
        "latitude_deg": NaN,
        "alt_km": NaN,
        "orbit_class": "HEO",
        "timestamp": "2025-11-30T09:33:02.503419+00:00"
      },
      "geometry": {
        "type": "Point",
        "coordinates": [
          NaN,
          NaN
        ]
      }
    },
    {
      "type": "Feature",
      "properties": {
        "OBJECT_NAME": "METOP-B",
        "OBJECT_ID": "2012-049A",
        "EPOCH": "2025-11-30T02:56:06.981792",
        "MEAN_MOTION": 14.21400948,
        "ECCENTRICITY": 0.0002321,
        "INCLINATION": 98.6818,
        "RA_OF_ASC_NODE": 24.2939,
        "ARG_OF_PERICENTER": 173.4184,
        "MEAN_ANOMALY": 186.7024,
        "EPHEMERIS_TYPE": 0,
        "CLASSIFICATION_TYPE": "U",
        "NORAD_CAT_ID": 38771,
        "ELEMENT_SET_NO": 999,
        "REV_AT_EPOCH": 68498,
        "BSTAR": 9.3151e-05,
        "MEAN_MOTION_DOT": 1.6e-06,
        "MEAN_MOTION_DDOT": 0,
        "norad_id": 38771,
        "name": "METOP-B",
        "group": "weather",
        "longitude_deg": NaN,
        "latitude_deg": NaN,
        "alt_km": NaN,
        "orbit_class": "HEO",
        "timestamp": "2025-11-30T09:33:02.503563+00:00"
      },
      "geometry": {
        "type": "Point",
        "coordinates": [
          NaN,
          NaN
        ]
      }
    },
    {
      "type": "Feature",
      "properties": {
        "OBJECT_NAME": "INSAT-3D",
        "OBJECT_ID": "2013-038B",
        "EPOCH": "2025-11-29T23:02:54.411072",
        "MEAN_MOTION": 1.00275859,
        "ECCENTRICITY": 0.0001612,
        "INCLINATION": 1.4086,
        "RA_OF_ASC_NODE": 85.1461,
        "ARG_OF_PERICENTER": 147.3666,
        "MEAN_ANOMALY": 311.7916,
        "EPHEMERIS_TYPE": 0,
        "CLASSIFICATION_TYPE": "U",
        "NORAD_CAT_ID": 39216,
        "ELEMENT_SET_NO": 999,
        "REV_AT_EPOCH": 4508,
        "BSTAR": 0,
        "MEAN_MOTION_DOT": -3.17e-06,
        "MEAN_MOTION_DDOT": 0,
        "norad_id": 39216,
        "name": "INSAT-3D",
        "group": "weather",
        "longitude_deg": NaN,
        "latitude_deg": NaN,
        "alt_km": NaN,
        "orbit_class": "HEO",
        "timestamp": "2025-11-30T09:33:02.504053+00:00"
      },
      "geometry": {
        "type": "Point",
        "coordinates": [
          NaN,
          NaN
        ]
      }
    },
    {
      "type": "Feature",
      "properties": {
        "OBJECT_NAME": "FENGYUN 3C",
        "OBJECT_ID": "2013-052A",
        "EPOCH": "2025-11-30T05:38:15.953568",
        "MEAN_MOTION": 14.15690197,
        "ECCENTRICITY": 0.0013709,
        "INCLINATION": 98.475,
        "RA_OF_ASC_NODE": 312.5257,
        "ARG_OF_PERICENTER": 233.8079,
        "MEAN_ANOMALY": 126.1828,
        "EPHEMERIS_TYPE": 0,
        "CLASSIFICATION_TYPE": "U",
        "NORAD_CAT_ID": 39260,
        "ELEMENT_SET_NO": 999,
        "REV_AT_EPOCH": 63041,
        "BSTAR": 9.3467e-05,
        "MEAN_MOTION_DOT": 1.42e-06,
        "MEAN_MOTION_DDOT": 0,
        "norad_id": 39260,
        "name": "FENGYUN 3C",
        "group": "weather",
        "longitude_deg": NaN,
        "latitude_deg": NaN,
        "alt_km": NaN,
        "orbit_class": "HEO",
        "timestamp": "2025-11-30T09:33:02.504146+00:00"
      },
      "geometry": {
        "type": "Point",
        "coordinates": [
          NaN,
          NaN
        ]
      }
    },
    {
      "type": "Feature",
      "properties": {
        "OBJECT_NAME": "METEOR-M 2",
        "OBJECT_ID": "2014-037A",
        "EPOCH": "2025-11-30T05:14:12.097248",
        "MEAN_MOTION": 14.21378854,
        "ECCENTRICITY": 0.0004624,
        "INCLINATION": 98.4889,
        "RA_OF_ASC_NODE": 312.2836,
        "ARG_OF_PERICENTER": 252.3254,
        "MEAN_ANOMALY": 107.7419,
        "EPHEMERIS_TYPE": 0,
        "CLASSIFICATION_TYPE": "U",
        "NORAD_CAT_ID": 40069,
        "ELEMENT_SET_NO": 999,
        "REV_AT_EPOCH": 59105,
        "BSTAR": 0.00010636,
        "MEAN_MOTION_DOT": 1.9e-06,
        "MEAN_MOTION_DDOT": 0,
        "norad_id": 40069,
        "name": "METEOR-M 2",
        "group": "weather",
        "longitude_deg": NaN,
        "latitude_deg": NaN,
        "alt_km": NaN,
        "orbit_class": "HEO",
        "timestamp": "2025-11-30T09:33:02.504815+00:00"
      },
      "geometry": {
        "type": "Point",
        "coordinates": [
          NaN,
          NaN
        ]
      }
    },
    {
      "type": "Feature",
      "properties": {
        "OBJECT_NAME": "HIMAWARI-8",
        "OBJECT_ID": "2014-060A",
        "EPOCH": "2025-11-29T21:23:26.291328",
        "MEAN_MOTION": 1.00273539,
        "ECCENTRICITY": 0.0001024,
        "INCLINATION": 0.0367,
        "RA_OF_ASC_NODE": 159.3589,
        "ARG_OF_PERICENTER": 113.4675,
        "MEAN_ANOMALY": 257.7391,
        "EPHEMERIS_TYPE": 0,
        "CLASSIFICATION_TYPE": "U",
        "NORAD_CAT_ID": 40267,
        "ELEMENT_SET_NO": 999,
        "REV_AT_EPOCH": 4076,
        "BSTAR": 0,
        "MEAN_MOTION_DOT": -2.53e-06,
        "MEAN_MOTION_DDOT": 0,
        "norad_id": 40267,
        "name": "HIMAWARI-8",
        "group": "weather",
        "longitude_deg": NaN,
        "latitude_deg": NaN,
        "alt_km": NaN,
        "orbit_class": "HEO",
        "timestamp": "2025-11-30T09:33:02.505024+00:00"
      },
      "geometry": {
        "type": "Point",
        "coordinates": [
          NaN,
          NaN
        ]
      }
    }
  ]
}